[{"OBJECT_NAME":"STARLINK-32901","OBJECT_ID":"2025-024S","EPOCH":"2026-03-09T09:43:06.939552","MEAN_MOTION":15.27595016,"ECCENTRICITY":8.273e-5,"INCLINATION":43.0014,"RA_OF_ASC_NODE":326.8612,"ARG_OF_PERICENTER":309.5419,"MEAN_ANOMALY":50.536,"EPHEMERIS_TYPE":0,"CLASSIFICATION_TYPE":"U","NORAD_CAT_ID":62895,"ELEMENT_SET_NO":999,"REV_AT_EPOCH":6222,"BSTAR":0.0011821364,"MEAN_MOTION_DOT":0.00032426,"MEAN_MOTION_DDOT":0},{"OBJECT_NAME":"COSMOS 2251 DEB","OBJECT_ID":"1993-036SV","EPOCH":"2026-03-09T21:55:42.811680","MEAN_MOTION":15.15006345,"ECCENTRICITY":0.00579573,"INCLINATION":74.0283,"RA_OF_ASC_NODE":1.8812,"ARG_OF_PERICENTER":55.6817,"MEAN_ANOMALY":304.9843,"EPHEMERIS_TYPE":0,"CLASSIFICATION_TYPE":"U","NORAD_CAT_ID":34452,"ELEMENT_SET_NO":999,"REV_AT_EPOCH":91981,"BSTAR":0.0011020825,"MEAN_MOTION_DOT":0.00021495,"MEAN_MOTION_DDOT":0}]
